C/2016 M1 (PANSTARRS),p,08/10.3314/2018,91.0071,209.7079,2.215438,92.0792,2000,5.0,4.0
# From MPEC 2016-P06
C/2016 N4 (MASTER),e,72.2505,354.1097,55.6963,108.2047,0.0008757,0.97017148,0.0000,09/20.3182/2017,2000,g  8.5,4.0
# From AJ 98, 1083
1P/Halley,e,162.3005,58.3302,111.2113,17.85430,0.0130644,0.96765084,145.8347,08/11.0/2016,2000,g  5.5,3.2
# From NK 2573
2P/Encke,e,11.7792,334.5641,186.5575,2.214867,0.2990079,0.84834359,296.8833,08/11.0/2016,2000,g 11.5,6.0
# From MPC 92275
4P/Faye,e,9.1474,199.0342,204.8588,3.825423,0.1317301,0.57270541,105.7469,08/11.0/2016,2000,g  8.0,6.0
# From MPC 95735
6P/d'Arrest,e,19.4825,138.9295,178.0937,3.502156,0.1503837,0.61134496,79.3482,08/11.0/2016,2000,g  7.5,16.0
# From MPC 92984
7P/Pons-Winnecke,e,22.3389,93.3985,172.4965,3.418554,0.1559339,0.63774440,87.0760,08/11.0/2016,2000,g 10.0,6.0
# From MPC 75715
8P/Tuttle,e,54.9915,270.2933,207.5270,5.690591,0.0726053,0.82027321,226.1792,08/11.0/2016,2000,g  8.0,8.0
# From MPC 84319
9P/Tempel,e,10.4740,68.7495,179.2066,3.145378,0.1766831,0.50958512,1.4870,08/11.0/2016,2000,g  5.5,10.0
# From MPC 92984
10P/Tempel,e,12.0290,117.8010,195.5347,3.063946,0.1837733,0.53737376,49.7582,08/11.0/2016,2000,g  5.0,10.0
# From MPC 89730
11P/Tempel-Swift-LINEAR,e,13.6299,240.0327,164.2905,3.407801,0.1566725,0.54803832,111.9049,08/11.0/2016,2000,g 17.0,4.0
# From QJ 27, 604
12P/Pons-Brooks,e,74.2325,255.8292,199.1738,16.95226,0.0141209,0.95438209,320.2936,08/11.0/2016,2000,g  5.0,6.0
# From QJ 27, 604
13P/Olbers,e,44.6376,86.0605,64.5755,16.65119,0.0145056,0.93053704,318.2463,08/11.0/2016,2000,g  5.0,6.0
# From MPC 10028
14P/Wolf,e,27.9034,202.1189,159.0653,4.256600,0.1122302,0.35563493,306.3309,08/11.0/2016,2000,g  5.5,12.0
# From MPC 91617
15P/Finlay,e,6.8077,13.6853,347.8722,3.498385,0.1506270,0.71907031,89.3662,08/11.0/2016,2000,g 12.0,4.0
# From MPC 92276
16P/Brooks,e,4.2986,159.2999,220.5499,3.380697,0.1585604,0.57152032,124.1586,08/11.0/2016,2000,g  7.5,10.0
# From MPC 83523
17P/Holmes,e,19.0757,326.7745,24.7274,3.625478,0.1427763,0.43043088,123.9319,08/11.0/2016,2000,g 10.0,6.0
# From MPC 92984
19P/Borrelly,e,30.3786,75.3170,353.4792,3.601137,0.1442264,0.62564694,63.4687,08/11.0/2016,2000,g  4.5,10.0
# From MPC 94674
21P/Giacobini-Zinner,e,31.9792,195.4070,172.5263,3.512750,0.1497039,0.70797625,246.0030,08/11.0/2016,2000,g  9.0,6.0
# From MPC 94283
22P/Kopff,e,4.7370,120.8690,162.8950,3.445834,0.1540858,0.54784330,44.8238,08/11.0/2016,2000,g  3.0,10.4
# From MPC 14747
23P/Brorsen-Metcalf,e,19.4207,311.2803,129.9169,16.96408,0.0141062,0.97145542,0.0000,09/19.0720/1989,2000,g  7.8,3.2
# From MPC 56804
24P/Schaumasse,e,11.7332,79.6430,58.0350,4.085548,0.1193517,0.70474957,304.7656,08/11.0/2016,2000,g  6.5,14.0
# From MPC 94674
26P/Grigg-Skjellerup,e,22.4465,211.5319,2.1552,3.016028,0.1881703,0.64076256,212.8877,08/11.0/2016,2000,g 12.0,16.0
# From MPC 78188
27P/Crommelin,e,29.2072,250.5816,196.0310,9.215485,0.0352311,0.91869071,64.6960,08/11.0/2016,2000,g 12.0,8.0
# From MPC 75715
28P/Neujmin,e,14.3170,346.3505,347.5555,6.940794,0.0539002,0.77259854,269.6300,08/11.0/2016,2000,g  8.5,6.0
# From MPC 10028
29P/Schwassmann-Wachmann,e,9.3765,312.4095,48.9554,6.015281,0.0668067,0.04165119,296.1722,08/11.0/2016,2000,g  4.0,4.0
# From NK 2729
30P/Reinmuth,e,8.1284,119.7108,13.2593,3.770386,0.1346249,0.50221342,309.7702,08/11.0/2016,2000,g  9.5,6.0
# From MPC 79344
31P/Schwassmann-Wachmann,e,4.5462,114.1388,18.2852,4.247334,0.1125977,0.19386506,240.8243,08/11.0/2016,2000,g  5.0,8.0
# From MPC 92276
32P/Comas Sola,e,9.9713,57.8221,53.2821,4.504114,0.1031074,0.55581658,68.4325,08/11.0/2016,2000,g  6.5,8.0
# From MPC 84320
33P/Daniel,e,22.3943,66.4909,19.0697,4.023074,0.1221426,0.46304302,358.5999,08/11.0/2016,2000,g 10.0,12.0
# From QJ 15, 452
35P/Herschel-Rigollet,e,63.3550,355.5162,29.4825,28.56777,0.0064549,0.97328146,0.0000,03/15.0482/2092,2000,g  8.5,4.0
# From MPC 75716
36P/Whipple,e,9.9554,181.9699,200.0337,4.146171,0.1167437,0.26489746,197.5679,08/11.0/2016,2000,g  8.5,6.0
# From MPC 94674
37P/Forbes,e,8.9689,314.6523,330.0614,3.453533,0.1535708,0.53471888,263.0758,08/11.0/2016,2000,g 10.5,4.8
# From QJ 27, 605
38P/Stephan-Oterma,e,18.3593,78.0308,359.6151,11.27173,0.0260446,0.85925211,338.5933,08/11.0/2016,2000,g  3.5,12.0
# From MPC 75716
39P/Oterma,e,1.5358,299.8781,93.7059,7.419905,0.0487648,0.22379953,240.2315,08/11.0/2016,2000,g  5.0,6.0
# From MPC 10028
40P/Vaisala,e,11.4913,133.8414,47.3236,4.942813,0.0896897,0.63167109,56.8724,08/11.0/2016,2000,g  5.5,12.0
# From MPC 62882
41P/Tuttle-Giacobini-Kresak,e,9.2293,141.0763,62.1382,3.084420,0.1819466,0.66115471,315.2486,08/11.0/2016,2000,g 10.0,16.0
# From MPC 94283
42P/Neujmin,e,3.9845,150.2795,147.0998,4.875633,0.0915498,0.58422548,44.9322,08/11.0/2016,2000,g 13.0,6.0
# From MPC 84320
43P/Wolf-Harrington,e,15.9653,249.8331,191.5974,3.349043,0.1608137,0.59452709,358.6037,08/11.0/2016,2000,g  8.0,6.0
# From MPC 89313
44P/Reinmuth,e,5.8960,286.4586,58.2480,3.692181,0.1389247,0.42625520,70.2951,08/11.0/2016,2000,g  8.3,6.0
# From MPC 84320
45P/Honda-Mrkos-Pajdusakova,e,4.2496,89.0074,326.2703,3.024391,0.1873903,0.82392578,333.3550,08/11.0/2016,2000,g 13.5,8.0
# From MPC 88330
46P/Wirtanen,e,11.7493,82.1732,356.3553,3.089072,0.1815357,0.65860191,204.9669,08/11.0/2016,2000,g  9.0,6.0
# From NK 2718
47P/Ashbrook-Jackson,e,13.0309,356.9734,357.7035,4.125010,0.1176431,0.31683660,324.3162,08/11.0/2016,2000,g  1.0,11.2
# From MPC 94675
48P/Johnson,e,12.2251,110.8877,215.3979,3.511287,0.1497975,0.42849385,250.7874,08/11.0/2016,2000,g 10.0,6.0
# From MPC 94675
49P/Arend-Rigaux,e,19.0501,118.8352,332.9200,3.567877,0.1462477,0.59967266,257.1248,08/11.0/2016,2000,g 11.3,4.4
# From MPC 95735
50P/Arend,e,19.1392,355.1757,49.2247,4.083837,0.1194267,0.53013644,22.0712,08/11.0/2016,2000,g  9.5,6.0
# From NK 3014
51P-A/Harrington,e,5.4245,83.6906,269.2715,3.713258,0.1377436,0.54230964,50.1877,08/11.0/2016,2000,g 10.0,8.0
# From NK 3013
51P-D/Harrington,e,5.4253,83.6755,269.3101,3.712237,0.1378004,0.54224656,50.3577,08/11.0/2016,2000,g 16.0,8.0
# From MPC 88330
52P/Harrington-Abell,e,10.2318,336.8353,139.6631,3.859311,0.1299988,0.54002214,115.3959,08/11.0/2016,2000,g 13.5,6.0
# From MPC 10028
53P/Van Biesbroeck,e,6.6084,148.9229,134.1988,5.413908,0.0782416,0.55168886,8.0634,08/11.0/2016,2000,g  7.7,4.8
# From NK 2713
54P/de Vico-Swift-NEAT,e,6.0573,358.8528,1.8732,3.795953,0.1332671,0.42447068,327.0179,08/11.0/2016,2000,g 10.0,6.0
# From MPC 31070
55P/Tempel-Tuttle,e,162.3677,235.3979,172.6175,10.33784,0.0296524,0.90652900,199.6632,08/11.0/2016,2000,g 10.0,10.0
# From MPC 75716
56P/Slaughter-Burnham,e,8.1478,345.9853,44.2185,5.084796,0.0859595,0.50664150,2.0260,08/11.0/2016,2000,g  8.5,6.0
# From MPC 98565
57P/du Toit-Neujmin-Delporte,e,2.8485,188.8046,115.1845,3.451775,0.1536881,0.49932115,68.6609,08/11.0/2016,2000,g 12.5,6.0
# From MPC 65938
58P/Jackson-Neujmin,e,13.5167,160.5399,199.9916,4.049958,0.1209284,0.66700696,191.9867,08/11.0/2016,2000,g 15.5,6.0
# From MPC 94675
59P/Kearns-Kwee,e,9.3433,312.8450,127.7612,4.493259,0.1034813,0.47547684,280.6481,08/11.0/2016,2000,g  7.0,6.0
# From MPC 94675
60P/Tsuchinshan,e,3.6070,267.6315,216.5342,3.510149,0.1498704,0.53824170,232.3145,08/11.0/2016,2000,g 11.5,6.0
# From MPC 95213
61P/Shajn-Schaldach,e,6.0058,163.0184,221.9087,3.680148,0.1396067,0.42556027,43.8193,08/11.0/2016,2000,g  6.0,10.0
# From MPC 62881
62P/Tsuchinshan,e,9.7080,90.2586,30.3359,3.438891,0.1545526,0.59767363,288.5757,08/11.0/2016,2000,g  8.0,10.0
# From MPC 84320
63P/Wild,e,19.7848,357.9705,169.1460,5.596105,0.0744518,0.65100407,90.6749,08/11.0/2016,2000,g 10.5,6.0
# From MPC 94675
64P/Swift-Gehrels,e,8.9451,300.0191,97.1393,4.454265,0.1048431,0.68714940,274.5480,08/11.0/2016,2000,g  8.5,12.0
# From MPC 10028
65P/Gunn,e,9.1760,62.0579,213.2484,3.888351,0.1285452,0.25133812,304.6622,08/11.0/2016,2000,g  5.0,6.0
# From MPC 94675
66P/du Toit,e,18.6769,21.9011,257.3123,6.039926,0.0663982,0.78677014,317.0895,08/11.0/2016,2000,g 12.0,3.6
# From MPC 89011
67P/Churyumov-Gerasimenko,e,7.0464,50.0764,12.8442,3.464771,0.1528242,0.64150691,55.5906,08/11.0/2016,2000,g 11.0,4.0
# From MPC 75716
68P/Klemola,e,11.1960,175.2921,153.7042,4.905848,0.0907054,0.64029796,252.4190,08/11.0/2016,2000,g 10.0,4.0
# From MPC 77020
69P/Taylor,e,22.0401,104.8524,343.6630,3.888879,0.1285190,0.41351744,238.0001,08/11.0/2016,2000,g  9.5,12.0
# From MPC 92276
70P/Kojima,e,6.6001,119.2673,1.9432,3.673296,0.1399975,0.45361701,92.4665,08/11.0/2016,2000,g 11.0,6.0
# From NK 2721
71P/Clark,e,9.4437,59.4705,208.9247,3.137455,0.1773527,0.49469878,302.7137,08/11.0/2016,2000,g  9.8,6.0
# From MPC 89011
72P/Denning-Fujikawa,e,10.8526,26.9085,346.4928,4.317333,0.1098704,0.82033235,83.8861,08/11.0/2016,2000,g 17.5,10.0
# From NK 2710
73P/Schwassmann-Wachmann,e,11.2367,69.6777,199.3875,3.091568,0.1813159,0.68562484,320.5062,08/11.0/2016,2000,g 11.5,6.0
# From MPC 94675
74P/Smirnova-Chernykh,e,6.6535,77.0558,86.9589,4.157676,0.1162594,0.14919078,298.0767,08/11.0/2016,2000,g  5.0,6.0
# From MPC 82322
76P/West-Kohoutek-Ikemura,e,30.4682,84.1334,0.0831,3.472121,0.1523392,0.53813330,181.5551,08/11.0/2016,2000,g  8.0,12.0
# From MPC 10028
77P/Longmore,e,24.3464,14.8036,196.7257,3.616163,0.1433284,0.35353371,12.8079,08/11.0/2016,2000,g  7.0,8.0
# From MPC 79654
78P/Gehrels,e,6.2495,210.5560,192.7156,3.737950,0.1363810,0.46110818,228.3788,08/11.0/2016,2000,g  5.5,8.0
# From MPC 94675
79P/du Toit-Hartley,e,3.1456,280.5672,281.7623,2.945406,0.1949783,0.61912259,211.1771,08/11.0/2016,2000,g 16.0,4.0
# From MPC 89313
80P/Peters-Hartley,e,29.9245,259.8618,339.1493,4.023256,0.1221343,0.59928694,78.1495,08/11.0/2016,2000,g  9.0,8.0
# From MPC 98565
81P/Wild,e,3.2390,136.1258,41.6967,3.449105,0.1538666,0.53838296,3.3376,08/11.0/2016,2000,g  7.0,6.0
# From MPC 75717
82P/Gehrels,e,1.1273,239.3179,227.1338,4.144491,0.1168147,0.12320872,279.8555,08/11.0/2016,2000,g  5.0,8.0
# From MPC 69911
